{
    "links": {
        "self": "http://www.neowsapp.com/rest/v1/neo/3837591?api_key=iIulBulltgU6a56xZRHN4H3l9WmuAYTsLGpBGhQ2"
    },
    "id": "3837591",
    "neo_reference_id": "3837591",
    "name": "(2019 AP2)",
    "designation": "2019 AP2",
    "nasa_jpl_url": "http://ssd.jpl.nasa.gov/sbdb.cgi?sstr=3837591",
    "absolute_magnitude_h": 23.1,
    "estimated_diameter": {
        "kilometers": {
            "estimated_diameter_min": 0.063760979,
            "estimated_diameter_max": 0.1425738833
        },
        "meters": {
            "estimated_diameter_min": 63.7609789875,
            "estimated_diameter_max": 142.5738833281
        },
        "miles": {
            "estimated_diameter_min": 0.0396192233,
            "estimated_diameter_max": 0.0885912765
        },
        "feet": {
            "estimated_diameter_min": 209.1895703015,
            "estimated_diameter_max": 467.7620993781
        }
    },
    "is_potentially_hazardous_asteroid": false,
    "close_approach_data": [
        {
            "close_approach_date": "2018-12-30",
            "close_approach_date_full": "2018-Dec-30 11:38",
            "epoch_date_close_approach": 1546169880000,
            "relative_velocity": {
                "kilometers_per_second": "12.4729219902",
                "kilometers_per_hour": "44902.5191646091",
                "miles_per_hour": "27900.6791998095"
            },
            "miss_distance": {
                "astronomical": "0.165638507",
                "lunar": "64.433379223",
                "kilometers": "24779167.83718009",
                "miles": "15397060.922821642"
            },
            "orbiting_body": "Earth"
        }
    ],
    "orbital_data": {
        "orbit_id": "3",
        "orbit_determination_date": "2019-01-09 07:23:04",
        "first_observation_date": "2019-01-03",
        "last_observation_date": "2019-01-08",
        "data_arc_in_days": 5,
        "observations_used": 20,
        "orbit_uncertainty": "9",
        "minimum_orbit_intersection": ".091663",
        "jupiter_tisserand_invariant": "4.980",
        "epoch_osculation": "2458487.5",
        "eccentricity": ".1625725747635259",
        "semi_major_axis": "1.274492080079253",
        "inclination": "23.18489534786972",
        "ascending_node_longitude": "276.1848194991426",
        "orbital_period": "525.5380174831653",
        "perihelion_distance": "1.067294621105047",
        "perihelion_argument": "199.2156250669493",
        "aphelion_distance": "1.481689539053459",
        "perihelion_time": "2458508.639817003217",
        "mean_anomaly": "345.5189655781622",
        "mean_motion": ".6850122884050572",
        "equinox": "J2000",
        "orbit_class": {
            "orbit_class_type": "AMO",
            "orbit_class_description": "Near-Earth asteroid orbits similar to that of 1221 Amor",
            "orbit_class_range": "1.017 AU < q (perihelion) < 1.3 AU"
        }
    },
    "is_sentry_object": false
}